{"fetched_at":"2026-03-30T20:46:33Z","count":15425,"tles":[{"name":"STARLINK-4191","line1":"1 52860U 22062AG  26087.89440572  .00000091  00000+0  23828-4 0  9991","line2":"2 52860  53.2173 297.9085 0001418  77.9833 282.1318 15.08843413208827","category":"Starlink"}]}